KUIPER-00074            
1 64821U 25151F   25343.68587728  .00001430  00000+0  21649-3 0  9995
2 64821  51.9008 328.5805 0013741 337.0803  22.9544 14.79962712 22117
KUIPER-00075            
1 64822U 25151G   25343.85285412  .00106278  00000+0  26335-2 0  9992
2 64822  51.8752 298.1407 0003033 358.8663   1.2317 15.39547476 22550
KUIPER-00076            
1 64823U 25151H   25343.68319642  .00001198  00000+0  18611-3 0  9991
2 64823  51.8998 331.0856 0004828 329.8097  30.2586 14.79965837 22086
KUIPER-00077            
1 64824U 25151J   25343.40779888  .00006805  00000+0  92020-3 0  9990
2 64824  51.9023 337.3145 0005960 286.4841  73.5466 14.79956281 21977
KUIPER-00078            
1 64825U 25151K   25343.71432730  .00008740  00000+0  11727-2 0  9991
2 64825  51.9017 333.4532 0008609 349.9359  10.1430 14.79962807 22059
KUIPER-00079            
1 64826U 25151L   25343.40510473  .00008362  00000+0  11234-2 0  9992
2 64826  51.9000 339.8084 0011492 303.0733  56.9125 14.79944418 23132
KUIPER-00080            
1 64827U 25151M   25343.43861725  .00008197  00000+0  10996-2 0  9995
2 64827  51.9008 339.6608 0005853 317.8422  42.2089 14.80055335 21940
KUIPER-00082            
1 64828U 25151N   25343.21587948 -.00004879  00000+0 -61093-3 0  9994
2 64828  51.9022 328.1605 0004695 343.9349  16.1464 14.79953672 22080
KUIPER-00083            
1 64829U 25151P   25343.68058183  .00006550  00000+0  88736-3 0  9999
2 64829  51.9016 333.6039 0011226 304.2084  55.7814 14.79908793 23230
KUIPER-00084            
1 64830U 25151Q   25343.73720819  .00007195  00000+0  97016-3 0  9996
2 64830  51.9016 343.3382 0011767 278.4751  81.4877 14.79973211 21919
KUIPER-00085            
1 64831U 25151R   25343.65480765  .00005390  00000+0  73500-3 0  9998
2 64831  51.9047 326.2349 0007157 320.6564  39.3878 14.79953480 22142
KUIPER-00086            
1 64832U 25151S   25343.71152997  .00008514  00000+0  11427-2 0  9999
2 64832  51.9024 335.9715 0010948 303.8090  56.1830 14.79966533 22015
KUIPER-00087            
1 64833U 25151T   25343.12257659  .00005532  00000+0  75273-3 0  9993
2 64833  51.9005 321.0699 0000970  12.7567 347.3420 14.80005166 22165
KUIPER-00089            
1 64834U 25151U   25343.25236557  .00008149  00000+0  10960-2 0  9990
2 64834  51.9011 325.4993 0001816  44.0821 316.0286 14.79961287 22121
KUIPER-00090            
1 64835U 25151V   25343.64859558  .00006824  00000+0  95587-3 0  9993
2 64835  51.8998 315.4262 0004372  59.4274 300.7118 14.78454154 22296
KUIPER-00091            
1 64836U 25151W   25343.66025775  .00002892  00000+0  40813-3 0  9995
2 64836  51.9011 321.2032 0008796 355.8372   4.2515 14.79948190 22218
KUIPER-00092            
1 64837U 25151X   25343.65102228  .00006962  00000+0  93660-3 0  9994
2 64837  51.9012 328.7281 0006497 306.7887  53.2478 14.80141531 23321
KUIPER-00093            
1 64838U 25151Y   25343.17669917  .00002067  00000+0  29993-3 0  9995
2 64838  51.9016 333.3241 0013920 311.3518  48.6246 14.79945468 22000
KUIPER-00094            
1 64839U 25151Z   25343.13682999  .00012855  00000+0  92314-3 0  9990
2 64839  51.8904 318.8825 0004603 344.2912  15.7918 15.04594316 22207
KUIPER-00081            
1 65132U 25171A   25343.83335647 -.00010867  00000+0 -78229-3 0  9993
2 65132  51.8891 187.4437 0003257 187.2646 136.8988 15.02869982  4878
KUIPER-00088            
1 65133U 25171B   25343.62489542  .00003412  00000+0  51313-3 0  9996
2 65133  51.8985 203.9170 0008170 178.2802 181.8188 14.76714037 19456
KUIPER-00095            
1 65134U 25171C   25343.83335647 -.00012197  00000+0 -10194-2 0  9999
2 65134  51.8882 188.6622 0005336 175.1751 163.1879 14.97314554  5395
KUIPER-00096            
1 65135U 25171D   25343.59251002 -.00003820  00000+0 -47107-3 0  9993
2 65135  51.8979 196.4970 0010790 202.4182 157.6310 14.79968035 19558
KUIPER-00097            
1 65136U 25171E   25343.83335647  .00019708  00000+0  26716-2 0  9991
2 65136  51.8985 198.0412 0011352 208.4202  13.1686 14.78853472  5261
KUIPER-00098            
1 65137U 25171F   25343.58720738  .00020395  00000+0  26951-2 0  9998
2 65137  51.8998 201.5225 0008388 190.9810 169.0970 14.79931604 18821
KUIPER-00099            
1 65138U 25171G   25343.83335647 -.00047873  00000+0 -49617-2 0  9994
2 65138  51.8966 190.6604 0005747 240.8863 323.4788 14.89678354  4262
KUIPER-00100            
1 65139U 25171H   25343.83335647 -.01765974  00000+0 -14950+0 0  9994
2 65139  51.8903 188.6528 0002410 257.9096 192.8642 15.01197608  3345
KUIPER-00102            
1 65140U 25171J   25343.83335647 -.01592486  00000+0 -18893+0 0  9992
2 65140  51.8966 190.5693 0012499 200.3209 269.2946 14.87560712  5865
KUIPER-00103            
1 65141U 25171K   25342.93755661  .00003890  00000+0  53956-3 0  9991
2 65141  51.8975 211.8865 0005960 185.0630 175.0273 14.79888014 19272
KUIPER-00104            
1 65142U 25171L   25343.83335647 -.00017988  00000+0 -22185-2 0  9994
2 65142  51.8992 194.3709 0003414 225.3988 307.9398 14.82087730  5752
KUIPER-00105            
1 65143U 25171M   25343.31429457  .00004025  00000+0  55620-3 0  9998
2 65143  51.8982 205.2901 0013468 162.8753 197.2667 14.79943068 19400
KUIPER-00106            
1 65144U 25171N   25343.31405318  .00007842  00000+0  70452-3 0  9999
2 65144  51.8914 205.4602 0009702 157.0048 203.1357 14.96476393 19409
KUIPER-00107            
1 65145U 25171P   25343.83335647 -.00015603  00000+0 -10599-2 0  9995
2 65145  51.8854 187.3215 0006575 216.2084  68.5175 15.05327419  5045
KUIPER-00108            
1 65146U 25171Q   25343.62353902  .00000254  00000+0  62606-4 0  9999
2 65146  51.8999 198.8597 0009437 170.2694 189.8453 14.79942684 19523
KUIPER-00109            
1 65147U 25171R   25343.83335647 -.00834396  00000+0 -10855+0 0  9997
2 65147  51.9276 192.8865 0012321 185.7780 351.5528 14.82828447  5427
KUIPER-00110            
1 65148U 25171S   25343.87662661  .00005297  00000+0  77514-3 0  9998
2 65148  51.8963 205.1998 0011427 167.4712 192.6535 14.76940365 19449
KUIPER-00111            
1 65149U 25171T   25343.37370328  .00002839  00000+0  40128-3 0  9990
2 65149  51.8955 212.4470 0009486 171.4218 188.6908 14.79929975 19306
KUIPER-00112            
1 65150U 25171U   25343.83335647 -.00030939  00000+0 -40447-2 0  9995
2 65150  51.8993 192.9358 0008944 224.5866 144.0503 14.79933596  5445
KUIPER-00114            
1 65151U 25171V   25343.37116546  .00005861  00000+0  79776-3 0  9992
2 65151  51.8982 214.9951 0006892 155.4834 204.6457 14.79895166 19261
KUIPER-00115            
1 65152U 25171W   25343.64920808  .00005746  00000+0  78169-3 0  9994
2 65152  51.8996 206.2444 0009849 187.5459 172.5356 14.79935618 19417
KUIPER-00116            
1 65153U 25171X   25343.33999581  .00005528  00000+0  75317-3 0  9995
2 65153  51.8980 212.6571 0010693 149.2344 210.9247 14.79932356 19298
KUIPER-00118            
1 65154U 25171Y   25343.33734298  .00006008  00000+0  81693-3 0  9996
2 65154  51.8983 215.1233 0001859 132.2418 227.8702 14.79907701 19269
KUIPER-00119            
1 65155U 25171Z   25343.35071378  .00000278  00000+0  65686-4 0  9990
2 65155  51.8975 202.6446 0008482 179.7799 180.3169 14.79955450 19438
KUIPER-00120            
1 65762U 25217A   25342.75987170  .00008668  00000+0  85664-3 0  9992
2 65762  51.8949  94.3258 0016790 351.5777   8.4907 14.92505286 11285
KUIPER-00132            
1 65763U 25217B   25343.64739198  .00068106  00000+0  18283-2 0  9992
2 65763  51.8626  79.7037 0007410   5.5708 354.5360 15.37287248 11563
KUIPER-00133            
1 65764U 25217C   25343.68841713 -.00000740  00000+0 -67561-4 0  9991
2 65764  51.9048  91.0731 0013566  15.8588 344.2797 14.79858129 11411
KUIPER-00139            
1 65765U 25217D   25343.68453565  .00012319  00000+0  95847-3 0  9996
2 65765  51.8859  85.9135 0007975  11.1019 349.0127 15.01575678 11484
KUIPER-00142            
1 65766U 25217E   25343.83335647 -.01080133  00000+0 -43201-1 0  9991
2 65766  51.8713  78.7434 0002717  27.9540 345.0229 15.27518807  4366
KUIPER-00145            
1 65767U 25217F   25343.83335647 -.00561761  00000+0 -27530-1 0  9999
2 65767  51.8855  79.8073 0006782 338.2737 190.2492 15.19855101  5643
KUIPER-00147            
1 65768U 25217G   25343.83335647 -.00664509  00000+0 -43292-1 0  9997
2 65768  51.8813  81.3847 0010336   7.5704  75.5222 15.09819899  5509
KUIPER-00148            
1 65769U 25217H   25343.83335647 -.00927825  00000+0 -52005-1 0  9993
2 65769  51.8742  81.1839 0008754  33.3342 217.7282 15.15625016  4032
KUIPER-00150            
1 65770U 25217J   25343.83335647 -.00002664  00000+0 -30114-3 0  9999
2 65770  51.8997  87.8921 0005425  30.5115  29.8424 14.82428147  5456
KUIPER-00151            
1 65771U 25217K   25343.83335647  .00014109  00000+0  10017-2 0  9994
2 65771  51.8828  82.0839 0002966   1.5570 197.7519 15.04945830  5868
KUIPER-00152            
1 65772U 25217L   25343.83335647  .00038508  00000+0  10365-2 0  9990
2 65772  51.8703  77.9873 0002720 340.3863  35.6252 15.37482070  2105
KUIPER-00153            
1 65773U 25217M   25343.52355081  .00015476  00000+0  92883-3 0  9996
2 65773  51.8777  87.0459 0012588   8.9034 351.2162 15.11029005 11451
KUIPER-00155            
1 65774U 25217N   25343.64511948  .00061298  00000+0  16363-2 0  9997
2 65774  51.8662  79.7046 0007206   2.9504 357.1524 15.37509543 11569
KUIPER-00156            
1 65775U 25217P   25343.64178032  .00065053  00000+0  16615-2 0  9994
2 65775  51.8722  78.9863 0002795 347.6373  12.4545 15.38862207 11571
KUIPER-00158            
1 65776U 25217Q   25343.83335647 -.00872672  00000+0 -78584-1 0  9990
2 65776  51.8877  83.7129 0004878 349.0527 135.2606 14.98117282  5434
KUIPER-00163            
1 65777U 25217R   25343.83335647 -.00652498  00000+0 -68847-1 0  9994
2 65777  51.9096  85.6640 0011645  16.6970  83.8432 14.91509756  5290
